{"type":"FeatureCollection","licence":"Data © OpenStreetMap contributors, ODbL 1.0. http://osm.org/copyright","features":[{"type":"Feature","properties":{"place_id":276069026,"osm_type":"relation","osm_id":3377881,"place_rank":16,"category":"boundary","type":"administrative","importance":0.3701845356649174,"addresstype":"suburb","name":"Yopougon","display_name":"Yopougon, Abidjan, Côte d’Ivoire","address":{"suburb":"Yopougon","state":"Abidjan","ISO3166-2-lvl4":"CI-AB","country":"Côte d’Ivoire","country_code":"ci"}},"bbox":[-4.1331520,5.2343865,-4.0205774,5.4010433],"geometry":{"type":"Polygon","coordinates":[[[-4.133152,5.3975401],[-4.1284208,5.363553],[-4.1274326,5.3543752],[-4.1262862,5.3437275],[-4.1252238,5.3438598],[-4.1236468,5.3379515],[-4.1236601,5.3339727],[-4.1249979,5.3317614],[-4.1230147,5.3133406],[-4.1186586,5.308828],[-4.1177802,5.286202],[-4.1157036,5.2683763],[-4.1155634,5.2671733],[-4.1154298,5.2660262],[-4.1153715,5.2655447],[-4.1153089,5.2650289],[-4.1117326,5.2343865],[-4.1103271,5.2346148],[-4.109045,5.2347871],[-4.1079426,5.2349313],[-4.1063118,5.2351263],[-4.105487,5.2352091],[-4.1044477,5.235344],[-4.1027807,5.2355644],[-4.1017333,5.2356659],[-4.1005451,5.2358074],[-4.0981686,5.2361653],[-4.0963233,5.2363336],[-4.094258,5.236574],[-4.0925092,5.2368358],[-4.089548,5.237167],[-4.0857178,5.2376157],[-4.0835801,5.237824],[-4.082467,5.2379629],[-4.0801174,5.2382514],[-4.0773574,5.2385292],[-4.075402,5.2387776],[-4.0736023,5.2389913],[-4.0717703,5.2391969],[-4.0703461,5.2393438],[-4.0686107,5.2395415],[-4.0668565,5.2397124],[-4.0651104,5.2399021],[-4.0630773,5.2400837],[-4.061358,5.2403001],[-4.0600383,5.2404336],[-4.0588421,5.2405778],[-4.0577933,5.2406847],[-4.0567419,5.2408129],[-4.0557334,5.2409331],[-4.0550843,5.2410239],[-4.0540087,5.2411201],[-4.0530217,5.2412082],[-4.052335,5.2412296],[-4.0515438,5.2413043],[-4.0509966,5.2413765],[-4.0504226,5.2414299],[-4.0498808,5.241486],[-4.0489367,5.2415901],[-4.0478155,5.2417103],[-4.0463001,5.2418466],[-4.0454793,5.241908],[-4.0439102,5.2420629],[-4.0430197,5.2421404],[-4.0416572,5.2422419],[-4.0409973,5.2422873],[-4.03938,5.2424048],[-4.0375212,5.2425383],[-4.0351233,5.2426425],[-4.0342408,5.2426959],[-4.0324525,5.2656302],[-4.0255702,5.2689614],[-4.0205774,5.271378],[-4.0209254,5.2919131],[-4.0321879,5.3028944],[-4.0336151,5.304286],[-4.0388953,5.3065763],[-4.0394093,5.3067993],[-4.0411986,5.3069503],[-4.0444387,5.3060708],[-4.0447931,5.307234],[-4.0449549,5.3082764],[-4.0451722,5.3088943],[-4.0438634,5.3105157],[-4.0439502,5.3108212],[-4.0439502,5.3135787],[-4.0439121,5.3153787],[-4.0438932,5.316275],[-4.0439392,5.3172324],[-4.0439666,5.317802],[-4.0439392,5.3189315],[-4.043933,5.319056],[-4.0438559,5.3206148],[-4.0437592,5.3225692],[-4.0437569,5.3229034],[-4.0437507,5.3238286],[-4.0437425,5.325038],[-4.0437335,5.3263722],[-4.0437279,5.3271906],[-4.0437238,5.3278006],[-4.0439119,5.3283844],[-4.043969,5.3284538],[-4.0447638,5.3294199],[-4.0448939,5.3295588],[-4.0455813,5.3302927],[-4.0459097,5.3306433],[-4.0461048,5.3308516],[-4.0466004,5.3313807],[-4.0500743,5.3349957],[-4.0529066,5.3353042],[-4.0541236,5.3356567],[-4.0551248,5.3372681],[-4.0551607,5.3382084],[-4.0556688,5.3392162],[-4.0569549,5.3397389],[-4.0577061,5.340334],[-4.0558901,5.3409102],[-4.0544334,5.341546],[-4.0542586,5.3417581],[-4.0567992,5.3436498],[-4.0547801,5.3458188],[-4.0567838,5.3472658],[-4.0562453,5.3476524],[-4.0544039,5.3464228],[-4.0531071,5.3492467],[-4.0564845,5.3491209],[-4.0595977,5.348564],[-4.0602232,5.3488024],[-4.0607168,5.3494579],[-4.0604064,5.3502306],[-4.0597573,5.350919],[-4.0595692,5.3513375],[-4.0585569,5.3535899],[-4.0562778,5.3553523],[-4.0559888,5.3587723],[-4.0568267,5.3592492],[-4.0572113,5.359379],[-4.0574945,5.3596616],[-4.0576603,5.3600659],[-4.0581677,5.3599975],[-4.0584268,5.3602923],[-4.0589991,5.3607508],[-4.0597443,5.360963],[-4.0600055,5.3611535],[-4.0604376,5.3622544],[-4.060789,5.3632605],[-4.0609648,5.3648279],[-4.0615286,5.3660455],[-4.0622756,5.3672047],[-4.0629859,5.3677588],[-4.062898,5.368116],[-4.0631836,5.3682472],[-4.0630005,5.3686118],[-4.0642893,5.3697564],[-4.0659882,5.3695085],[-4.0668303,5.3696689],[-4.0669548,5.3700772],[-4.0689319,5.370449],[-4.0692321,5.3699459],[-4.0699571,5.3700334],[-4.0698106,5.370675],[-4.0701694,5.3711708],[-4.0692101,5.3729715],[-4.0691809,5.3735183],[-4.0692834,5.3738391],[-4.0721685,5.3736058],[-4.0727324,5.3727965],[-4.0744825,5.3737662],[-4.0746143,5.3761648],[-4.0744825,5.3767261],[-4.0738967,5.3780676],[-4.0737175,5.3790714],[-4.0738829,5.3803911],[-4.0739459,5.3834013],[-4.0741447,5.3864897],[-4.0746027,5.3890968],[-4.074581,5.3893087],[-4.0748573,5.3913672],[-4.0752172,5.391909],[-4.0775863,5.391934],[-4.0777027,5.3919922],[-4.0790711,5.3920078],[-4.0798708,5.3920169],[-4.0804344,5.3928068],[-4.0818898,5.3948132],[-4.0820861,5.3950837],[-4.0824032,5.3955209],[-4.0827642,5.3960185],[-4.083126,5.3965588],[-4.0834648,5.3971549],[-4.0835911,5.3974239],[-4.0836304,5.3975075],[-4.0838266,5.3979869],[-4.084004,5.3985534],[-4.0841451,5.3992094],[-4.0842419,5.3997979],[-4.0842674,5.4004041],[-4.0842423,5.4010433],[-4.133152,5.3975401]]]}},{"type":"Feature","properties":{"place_id":278927583,"osm_type":"relation","osm_id":3363950,"place_rank":16,"category":"boundary","type":"administrative","importance":0.3867453017489014,"addresstype":"suburb","name":"Cocody","display_name":"Cocody, Abidjan, Côte d’Ivoire","address":{"suburb":"Cocody","state":"Abidjan","ISO3166-2-lvl4":"CI-AB","country":"Côte d’Ivoire","country_code":"ci"}},"bbox":[-4.0178135,5.3178639,-3.9122457,5.4466467],"geometry":{"type":"Polygon","coordinates":[[[-4.0178135,5.340909],[-4.0163316,5.3394447],[-4.015473,5.3386364],[-4.0144762,5.332058],[-4.0144455,5.3302606],[-4.0041534,5.3178639],[-3.9924125,5.3227228],[-3.9593389,5.3191788],[-3.9527456,5.3182658],[-3.9294636,5.3224466],[-3.9287724,5.3313077],[-3.9286855,5.3364269],[-3.926117,5.3402466],[-3.9255621,5.341056],[-3.9274884,5.3455686],[-3.9318314,5.3550529],[-3.9317966,5.3571429],[-3.9306115,5.3571395],[-3.9305967,5.3586725],[-3.9305855,5.3598356],[-3.9311125,5.359836],[-3.9324917,5.3598488],[-3.9332798,5.3598453],[-3.9331833,5.3620622],[-3.9269055,5.3638652],[-3.9253784,5.3581121],[-3.9252747,5.3581239],[-3.9239323,5.3585977],[-3.9220975,5.3593045],[-3.921399,5.3595701],[-3.9212477,5.3596276],[-3.9211246,5.3596745],[-3.9188326,5.360546],[-3.9158068,5.3625312],[-3.9155393,5.3626867],[-3.9152887,5.3627881],[-3.9137716,5.3633045],[-3.9130878,5.3635372],[-3.9122457,5.3637517],[-3.9139897,5.3666803],[-3.9139563,5.3735409],[-3.9139465,5.3744323],[-3.913765,5.3789812],[-3.9136987,5.3806822],[-3.9136771,5.3812091],[-3.9170257,5.423976],[-3.9181946,5.425466],[-3.9188797,5.4247258],[-3.9192068,5.4249597],[-3.9209561,5.425315],[-3.9232191,5.4257079],[-3.9235283,5.4257349],[-3.9240663,5.4271079],[-3.9216488,5.4278814],[-3.9232317,5.4295717],[-3.9258501,5.43057],[-3.9291889,5.4321789],[-3.9293755,5.4324938],[-3.9318365,5.4366482],[-3.9374196,5.4410315],[-3.9380528,5.4431802],[-3.9409001,5.4461369],[-3.9413911,5.4466467],[-3.9442402,5.4463889],[-3.9472332,5.4452716],[-3.9468303,5.4441256],[-3.9490463,5.4429223],[-3.9517803,5.4428937],[-3.953265,5.4422565],[-3.9536797,5.4421488],[-3.9546869,5.4425213],[-3.9554644,5.4421758],[-3.9563273,5.4420915],[-3.958716,5.4428364],[-3.9595729,5.4422888],[-3.961047,5.4413466],[-3.9653639,5.4387682],[-3.9656229,5.436333],[-3.9685871,5.4347573],[-3.9710621,5.4346141],[-3.9738475,5.435524],[-3.9741131,5.4356108],[-3.9747763,5.4358275],[-3.9749001,5.4358679],[-3.9775517,5.4367341],[-3.9783663,5.4365896],[-3.9786011,5.4365479],[-3.9791335,5.4365819],[-3.9802895,5.4363295],[-3.9810164,5.4362828],[-3.9821177,5.4349578],[-3.9827607,5.4341843],[-3.9835296,5.4325749],[-3.983675,5.432294],[-3.9839558,5.4317518],[-3.9902591,5.4186668],[-3.9905782,5.418022],[-3.9915555,5.4159964],[-3.9990165,5.4007199],[-3.9994214,5.3997887],[-4.0065709,5.3999063],[-4.0065665,5.3987844],[-4.0065257,5.3978956],[-4.0065086,5.3975598],[-4.0064754,5.3971836],[-4.0064144,5.3966033],[-4.0057291,5.3917538],[-4.0055943,5.3907997],[-4.0055588,5.390364],[-4.0055492,5.3899735],[-4.0055478,5.3896685],[-4.0055736,5.389239],[-4.0056334,5.3886477],[-4.0060147,5.3853371],[-4.0069576,5.3783671],[-4.0072535,5.3779945],[-4.0075891,5.377721],[-4.0087579,5.376827],[-4.0089753,5.3766729],[-4.0091218,5.3765848],[-4.0092686,5.3765109],[-4.0098635,5.3762393],[-4.01001,5.3761547],[-4.0101607,5.3760404],[-4.0103114,5.3758987],[-4.0104104,5.3757708],[-4.0104968,5.3756459],[-4.0106418,5.375416],[-4.010724,5.3752276],[-4.0108459,5.3748775],[-4.0110132,5.3743972],[-4.0115862,5.3728442],[-4.0120663,5.371664],[-4.0132395,5.3688422],[-4.0133149,5.3687123],[-4.0133979,5.3685822],[-4.0148062,5.3670112],[-4.0149107,5.3669284],[-4.0152074,5.3667271],[-4.0152898,5.3666585],[-4.0153703,5.3665487],[-4.0154354,5.3664083],[-4.0159679,5.3651118],[-4.0162979,5.3642831],[-4.0168063,5.3630381],[-4.0168672,5.3628254],[-4.0169066,5.3626736],[-4.0169668,5.3622428],[-4.0170199,5.3618309],[-4.0170437,5.3615654],[-4.0170516,5.3614179],[-4.0170503,5.3611502],[-4.0169407,5.3605446],[-4.0168555,5.3600507],[-4.0166196,5.3598203],[-4.0161151,5.3592991],[-4.0155828,5.3585236],[-4.014487,5.356778],[-4.0139659,5.3553551],[-4.0137578,5.3542644],[-4.0136962,5.3527428],[-4.0136481,5.3502165],[-4.0136585,5.3489037],[-4.0136748,5.3486314],[-4.0137105,5.3483605],[-4.0137434,5.3481225],[-4.0138014,5.3478798],[-4.0138698,5.347643],[-4.0139506,5.3474255],[-4.0141028,5.3471172],[-4.0141953,5.3469607],[-4.0142979,5.3467978],[-4.0144436,5.346601],[-4.0146175,5.3463894],[-4.0148256,5.3461851],[-4.015059,5.3459809],[-4.0155457,5.3455969],[-4.0161843,5.3450535],[-4.0165732,5.3447291],[-4.0168546,5.3444508],[-4.0169901,5.3442957],[-4.0171179,5.3441225],[-4.0172621,5.3438931],[-4.017387,5.3436459],[-4.0174866,5.3434358],[-4.0175617,5.3432444],[-4.0176278,5.3430465],[-4.0176828,5.3428275],[-4.0177185,5.3426247],[-4.0177482,5.3423923],[-4.0177874,5.3414573],[-4.0178135,5.340909]]]}},{"type":"Feature","properties":{"place_id":277475512,"osm_type":"relation","osm_id":3377895,"place_rank":16,"category":"boundary","type":"administrative","importance":0.3479646975901272,"addresstype":"suburb","name":"Abobo","display_name":"Abobo, Abidjan, Côte d’Ivoire","address":{"suburb":"Abobo","state":"Abidjan","ISO3166-2-lvl4":"CI-AB","country":"Côte d’Ivoire","country_code":"ci"}},"bbox":[-4.1713083,5.3853371,-3.9532650,5.4762824],"geometry":{"type":"Polygon","coordinates":[[[-4.1713083,5.4495653],[-4.1669436,5.4436463],[-4.1616388,5.4366458],[-4.1612819,5.4361748],[-4.133152,5.3975401],[-4.0842423,5.4010433],[-4.0841706,5.4016216],[-4.084061,5.4022152],[-4.0838797,5.4028254],[-4.0835229,5.4036602],[-4.0834781,5.4037411],[-4.0818269,5.4067229],[-4.0816538,5.4070355],[-4.0783863,5.4129358],[-4.0735484,5.4216718],[-4.0733138,5.4220954],[-4.0727422,5.4231276],[-4.0709138,5.4263946],[-4.070853,5.4265033],[-4.0633033,5.4266253],[-4.0611993,5.4238039],[-4.0599944,5.4222856],[-4.0589724,5.4219205],[-4.0581355,5.4223691],[-4.0570948,5.4224866],[-4.0565799,5.4221448],[-4.0564997,5.4214536],[-4.0575455,5.4204359],[-4.0574489,5.4201475],[-4.0566657,5.4202329],[-4.0556894,5.4204145],[-4.0552495,5.4201688],[-4.0548954,5.4194105],[-4.0549276,5.418759],[-4.0544448,5.4185133],[-4.0537866,5.4186914],[-4.0531895,5.4199125],[-4.0531825,5.4213662],[-4.0527175,5.4215413],[-4.0521649,5.4213865],[-4.0513442,5.4209058],[-4.0494979,5.420478],[-4.0479539,5.4180701],[-4.0468274,5.417783],[-4.0450967,5.4177844],[-4.0442417,5.4176535],[-4.0439574,5.4168311],[-4.0441362,5.4164234],[-4.0443106,5.416026],[-4.0446117,5.4153395],[-4.0446977,5.4151435],[-4.043496,5.4134452],[-4.0431497,5.4132659],[-4.0427634,5.4130659],[-4.0408811,5.4120913],[-4.040179,5.4117278],[-4.0362814,5.4108629],[-4.03385,5.4106546],[-4.0327852,5.4106172],[-4.0321252,5.4099287],[-4.0302349,5.4115337],[-4.0292062,5.4119046],[-4.0281058,5.4122817],[-4.026309,5.4126404],[-4.0255168,5.4127289],[-4.0244674,5.4127147],[-4.0243887,5.4110674],[-4.0243908,5.4095255],[-4.021135,5.4095524],[-4.0215516,5.4019362],[-4.0215213,5.3993988],[-4.0188167,5.3963608],[-4.0145014,5.3931387],[-4.0143706,5.3929941],[-4.0085423,5.3865496],[-4.0060147,5.3853371],[-4.0056334,5.3886477],[-4.0055736,5.389239],[-4.0055478,5.3896685],[-4.0055492,5.3899735],[-4.0055588,5.390364],[-4.0055943,5.3907997],[-4.0057291,5.3917538],[-4.0064144,5.3966033],[-4.0064754,5.3971836],[-4.0065086,5.3975598],[-4.0065257,5.3978956],[-4.0065665,5.3987844],[-4.0065709,5.3999063],[-3.9994214,5.3997887],[-3.9990165,5.4007199],[-3.9915555,5.4159964],[-3.9905782,5.418022],[-3.9902591,5.4186668],[-3.9839558,5.4317518],[-3.983675,5.432294],[-3.9835296,5.4325749],[-3.9827607,5.4341843],[-3.9821177,5.4349578],[-3.9810164,5.4362828],[-3.9802895,5.4363295],[-3.9791335,5.4365819],[-3.9786011,5.4365479],[-3.9783663,5.4365896],[-3.9775517,5.4367341],[-3.9749001,5.4358679],[-3.9747763,5.4358275],[-3.9741131,5.4356108],[-3.9738475,5.435524],[-3.9710621,5.4346141],[-3.9685871,5.4347573],[-3.9656229,5.436333],[-3.9653639,5.4387682],[-3.961047,5.4413466],[-3.9595729,5.4422888],[-3.958716,5.4428364],[-3.9563273,5.4420915],[-3.9554644,5.4421758],[-3.9546869,5.4425213],[-3.9536797,5.4421488],[-3.953265,5.4422565],[-3.9535523,5.4428514],[-3.9552443,5.4458602],[-3.9570453,5.4487251],[-3.9590984,5.4514464],[-3.9624882,5.4548944],[-3.9640024,5.4567083],[-3.9667423,5.4595035],[-3.9698112,5.4605254],[-3.9733823,5.4639743],[-3.975765,5.4665494],[-3.9801653,5.4689511],[-3.9811309,5.4692602],[-3.9819267,5.4695149],[-3.985682,5.4707168],[-3.9858713,5.4707774],[-3.9911783,5.4734343],[-3.9945362,5.4744933],[-3.9973587,5.475557],[-3.9999173,5.4762824],[-4.0025561,5.4761442],[-4.0110106,5.4748492],[-4.1502194,5.4528869],[-4.1530661,5.4524385],[-4.1611,5.4511732],[-4.1713083,5.4495653]]]}},{"type":"Feature","properties":{"place_id":278603367,"osm_type":"relation","osm_id":3377835,"place_rank":16,"category":"boundary","type":"administrative","importance":0.34188389141160974,"addresstype":"suburb","name":"Adjamé","display_name":"Adjamé, Abidjan, Côte d’Ivoire","address":{"suburb":"Adjamé","state":"Abidjan","ISO3166-2-lvl4":"CI-AB","country":"Côte d’Ivoire","country_code":"ci"}},"bbox":[-4.0332987,5.3382542,-4.0060147,5.3993988],"geometry":{"type":"Polygon","coordinates":[[[-4.0332987,5.3772108],[-4.031501,5.3662227],[-4.0313024,5.3650083],[-4.0310054,5.3648396],[-4.0309396,5.3647027],[-4.030633,5.363699],[-4.0300958,5.3617975],[-4.0296497,5.3602428],[-4.0294325,5.3596151],[-4.0292342,5.3590629],[-4.0297163,5.3588277],[-4.0299245,5.3586788],[-4.0301435,5.3584595],[-4.0303489,5.3581767],[-4.032341,5.3553648],[-4.0331388,5.3542342],[-4.0331998,5.353956],[-4.033232,5.3537223],[-4.0332166,5.3535123],[-4.0331406,5.3532675],[-4.0329664,5.352896],[-4.0325065,5.3519453],[-4.0317753,5.3505513],[-4.0315077,5.3499594],[-4.0312931,5.3492804],[-4.0311634,5.3487412],[-4.0309283,5.3477459],[-4.0308073,5.3472042],[-4.0306851,5.3465616],[-4.0305936,5.3459467],[-4.0305699,5.3452488],[-4.0306309,5.3444738],[-4.0307448,5.3438143],[-4.031259,5.3421464],[-4.0313896,5.3417085],[-4.0315375,5.3412734],[-4.0315741,5.3411537],[-4.0314647,5.3411011],[-4.0312513,5.3409795],[-4.0308248,5.340631],[-4.0304819,5.3402665],[-4.030088,5.339725],[-4.0298307,5.3392224],[-4.02863,5.3396363],[-4.0262589,5.3396704],[-4.0258826,5.3386865],[-4.0258665,5.3386208],[-4.0258281,5.338476],[-4.0257994,5.3383653],[-4.025787,5.3382953],[-4.0237818,5.3382542],[-4.0237698,5.3418684],[-4.0216398,5.3415391],[-4.0197097,5.3409783],[-4.0187963,5.340887],[-4.0178135,5.340909],[-4.0177874,5.3414573],[-4.0177482,5.3423923],[-4.0177185,5.3426247],[-4.0176828,5.3428275],[-4.0176278,5.3430465],[-4.0175617,5.3432444],[-4.0174866,5.3434358],[-4.017387,5.3436459],[-4.0172621,5.3438931],[-4.0171179,5.3441225],[-4.0169901,5.3442957],[-4.0168546,5.3444508],[-4.0165732,5.3447291],[-4.0161843,5.3450535],[-4.0155457,5.3455969],[-4.015059,5.3459809],[-4.0148256,5.3461851],[-4.0146175,5.3463894],[-4.0144436,5.346601],[-4.0142979,5.3467978],[-4.0141953,5.3469607],[-4.0141028,5.3471172],[-4.0139506,5.3474255],[-4.0138698,5.347643],[-4.0138014,5.3478798],[-4.0137434,5.3481225],[-4.0137105,5.3483605],[-4.0136748,5.3486314],[-4.0136585,5.3489037],[-4.0136481,5.3502165],[-4.0136962,5.3527428],[-4.0137578,5.3542644],[-4.0139659,5.3553551],[-4.014487,5.356778],[-4.0155828,5.3585236],[-4.0161151,5.3592991],[-4.0166196,5.3598203],[-4.0168555,5.3600507],[-4.0169407,5.3605446],[-4.0170503,5.3611502],[-4.0170516,5.3614179],[-4.0170437,5.3615654],[-4.0170199,5.3618309],[-4.0169668,5.3622428],[-4.0169066,5.3626736],[-4.0168672,5.3628254],[-4.0168063,5.3630381],[-4.0162979,5.3642831],[-4.0159679,5.3651118],[-4.0154354,5.3664083],[-4.0153703,5.3665487],[-4.0152898,5.3666585],[-4.0152074,5.3667271],[-4.0149107,5.3669284],[-4.0148062,5.3670112],[-4.0133979,5.3685822],[-4.0133149,5.3687123],[-4.0132395,5.3688422],[-4.0120663,5.371664],[-4.0115862,5.3728442],[-4.0110132,5.3743972],[-4.0108459,5.3748775],[-4.010724,5.3752276],[-4.0106418,5.375416],[-4.0104968,5.3756459],[-4.0104104,5.3757708],[-4.0103114,5.3758987],[-4.0101607,5.3760404],[-4.01001,5.3761547],[-4.0098635,5.3762393],[-4.0092686,5.3765109],[-4.0091218,5.3765848],[-4.0089753,5.3766729],[-4.0087579,5.376827],[-4.0075891,5.377721],[-4.0072535,5.3779945],[-4.0069576,5.3783671],[-4.0060147,5.3853371],[-4.0085423,5.3865496],[-4.0143706,5.3929941],[-4.0145014,5.3931387],[-4.0188167,5.3963608],[-4.0215213,5.3993988],[-4.0215362,5.3987301],[-4.0215715,5.3983106],[-4.0216593,5.3977516],[-4.0217551,5.3972867],[-4.0218489,5.3969133],[-4.0219509,5.3965879],[-4.0221185,5.396141],[-4.0222377,5.3958683],[-4.0223008,5.3957239],[-4.0249429,5.3898628],[-4.0265564,5.3863115],[-4.0267785,5.38566],[-4.0268841,5.3852709],[-4.0269486,5.3849205],[-4.0271478,5.3838645],[-4.02727,5.3833717],[-4.0274514,5.3828022],[-4.0276178,5.3824594],[-4.0278082,5.3821143],[-4.0281473,5.3816618],[-4.0284711,5.3813016],[-4.0289308,5.3809304],[-4.0293508,5.3806003],[-4.0298755,5.3802714],[-4.0303658,5.3799389],[-4.0308359,5.3795653],[-4.03119,5.3792165],[-4.0332987,5.3772108]]]}},{"type":"Feature","properties":{"place_id":276841241,"osm_type":"relation","osm_id":3377922,"place_rank":14,"category":"boundary","type":"administrative","importance":0.41372244811350606,"addresstype":"city","name":"Bingerville","display_name":"Bingerville, Abidjan, Côte d’Ivoire","address":{"city":"Bingerville","state":"Abidjan","ISO3166-2-lvl4":"CI-AB","country":"Côte d’Ivoire","country_code":"ci"}},"bbox":[-3.9332798,5.2728319,-3.7177411,5.4239760],"geometry":{"type":"Polygon","coordinates":[[[-3.9332798,5.3598453],[-3.9324917,5.3598488],[-3.9311125,5.359836],[-3.9305855,5.3598356],[-3.9305967,5.3586725],[-3.9306115,5.3571395],[-3.9317966,5.3571429],[-3.9318314,5.3550529],[-3.9274884,5.3455686],[-3.9255621,5.341056],[-3.926117,5.3402466],[-3.9286855,5.3364269],[-3.9287724,5.3313077],[-3.9294636,5.3224466],[-3.9108679,5.322241],[-3.8969724,5.318677],[-3.8978169,5.3077847],[-3.8953409,5.307456],[-3.8943267,5.3073165],[-3.8831379,5.3057771],[-3.8733721,5.3023992],[-3.8627911,5.2973261],[-3.8546519,5.2939448],[-3.8086446,5.2893433],[-3.787925,5.2728319],[-3.7706426,5.2768276],[-3.7588591,5.2754175],[-3.7535489,5.2734535],[-3.7341233,5.2736701],[-3.7307002,5.2737083],[-3.7221693,5.2840495],[-3.7177411,5.2945318],[-3.7203599,5.2975364],[-3.7279141,5.3031421],[-3.7320919,5.3041339],[-3.732861,5.304316],[-3.736542,5.3059211],[-3.7407629,5.3081789],[-3.7442269,5.3100362],[-3.7452719,5.311379],[-3.746639,5.313374],[-3.7480071,5.3157678],[-3.748759,5.3183398],[-3.751117,5.3286648],[-3.7520139,5.3309121],[-3.7538519,5.3330169],[-3.7572069,5.3350191],[-3.761358,5.3368058],[-3.7643189,5.3376479],[-3.767313,5.339757],[-3.7710969,5.3434982],[-3.77279,5.34553],[-3.7738435,5.3553272],[-3.7846693,5.3634068],[-3.7956013,5.3640875],[-3.7976748,5.3625644],[-3.7996481,5.3621688],[-3.8014871,5.3625666],[-3.8050145,5.3638591],[-3.8103387,5.3661781],[-3.813626,5.3676383],[-3.8154466,5.3682047],[-3.8173977,5.3687483],[-3.8187608,5.3694256],[-3.8206472,5.3698884],[-3.8222266,5.3710535],[-3.8236725,5.3722507],[-3.8260389,5.374125],[-3.8273917,5.3746603],[-3.8297736,5.3753493],[-3.8315259,5.3778949],[-3.8327775,5.3796573],[-3.8348865,5.3804212],[-3.8383016,5.3828244],[-3.8405498,5.3853085],[-3.8412265,5.3893563],[-3.8456581,5.3961082],[-3.848794,5.399447],[-3.8528659,5.403985],[-3.8575189,5.407763],[-3.860513,5.4099441],[-3.8643739,5.4120908],[-3.8683431,5.414927],[-3.8726749,5.4165678],[-3.8772981,5.417994],[-3.8822091,5.419384],[-3.888026,5.419908],[-3.8964441,5.4206929],[-3.9024041,5.421905],[-3.908942,5.4227929],[-3.9170257,5.423976],[-3.9136771,5.3812091],[-3.9136987,5.3806822],[-3.913765,5.3789812],[-3.9139465,5.3744323],[-3.9139563,5.3735409],[-3.9139897,5.3666803],[-3.9122457,5.3637517],[-3.9130878,5.3635372],[-3.9137716,5.3633045],[-3.9152887,5.3627881],[-3.9155393,5.3626867],[-3.9158068,5.3625312],[-3.9188326,5.360546],[-3.9211246,5.3596745],[-3.9212477,5.3596276],[-3.921399,5.3595701],[-3.9220975,5.3593045],[-3.9239323,5.3585977],[-3.9252747,5.3581239],[-3.9253784,5.3581121],[-3.9269055,5.3638652],[-3.9331833,5.3620622],[-3.9332798,5.3598453]]]}},{"type":"Feature","properties":{"place_id":277410013,"osm_type":"relation","osm_id":3377741,"place_rank":16,"category":"boundary","type":"administrative","importance":0.322688475709118,"addresstype":"municipality","name":"Koumassi","display_name":"Koumassi, Abidjan, Côte d’Ivoire","address":{"municipality":"Koumassi","state":"Abidjan","ISO3166-2-lvl4":"CI-AB","country":"Côte d’Ivoire","country_code":"ci"}},"bbox":[-3.9750981,5.2735295,-3.8969724,5.3224466],"geometry":{"type":"Polygon","coordinates":[[[-3.9750981,5.2925103],[-3.972179,5.2908984],[-3.9716458,5.2905245],[-3.9715081,5.290389],[-3.9713804,5.2902565],[-3.9712783,5.2901188],[-3.9711937,5.2899807],[-3.9711187,5.2898286],[-3.9710251,5.2895944],[-3.9709365,5.2893531],[-3.9706064,5.2881299],[-3.9692415,5.2822627],[-3.9687368,5.2800162],[-3.9683185,5.2788402],[-3.9679555,5.2782176],[-3.9669975,5.2766279],[-3.9661571,5.275711],[-3.9656062,5.2750503],[-3.965128,5.2744585],[-3.964929,5.2741201],[-3.9645942,5.2735295],[-3.959444,5.2778923],[-3.9493464,5.2787302],[-3.9448117,5.2801765],[-3.9434668,5.2820437],[-3.9424235,5.2836569],[-3.9406729,5.2878825],[-3.9380191,5.2973569],[-3.9270801,5.3030931],[-3.8978169,5.3077847],[-3.8969724,5.318677],[-3.9108679,5.322241],[-3.9294636,5.3224466],[-3.9527456,5.3182658],[-3.9593389,5.3191788],[-3.9561045,5.3128329],[-3.9559939,5.312482],[-3.9559262,5.312191],[-3.9557479,5.3118225],[-3.95514,5.3112097],[-3.9545097,5.3105806],[-3.9542211,5.3102921],[-3.9536117,5.3097884],[-3.953307,5.3094847],[-3.9531909,5.3093074],[-3.9531171,5.3091195],[-3.9531148,5.3088344],[-3.9531655,5.3084263],[-3.9535089,5.3080279],[-3.9539694,5.3076683],[-3.9550255,5.3069317],[-3.9553624,5.3067376],[-3.9557308,5.3063118],[-3.9560223,5.3061207],[-3.956374,5.3060187],[-3.9570871,5.3059711],[-3.9588413,5.3056446],[-3.9600657,5.3054883],[-3.9614116,5.3056525],[-3.9628065,5.3058533],[-3.9654073,5.3058833],[-3.9670064,5.30588],[-3.9684982,5.3057912],[-3.9693017,5.305665],[-3.9695031,5.3054255],[-3.969386,5.3049408],[-3.9693591,5.3045967],[-3.9690785,5.303348],[-3.9690773,5.3032021],[-3.969097,5.3031303],[-3.9715601,5.2986974],[-3.9749967,5.2926876],[-3.9750981,5.2925103]]]}},{"type":"Feature","properties":{"place_id":276836749,"osm_type":"relation","osm_id":3377873,"place_rank":16,"category":"boundary","type":"administrative","importance":0.3397246672409687,"addresstype":"suburb","name":"Port-Bouët","display_name":"Port-Bouët, Abidjan, Côte d’Ivoire","address":{"suburb":"Port-Bouët","state":"Abidjan","ISO3166-2-lvl4":"CI-AB","country":"Côte d’Ivoire","country_code":"ci"}},"bbox":[-4.0342408,5.2269022,-3.8086446,5.3077847],"geometry":{"type":"Polygon","coordinates":[[[-4.0342408,5.2426959],[-4.0336213,5.2427387],[-4.0322426,5.2428054],[-4.0308622,5.2428783],[-4.028627,5.2428989],[-4.0273047,5.2429256],[-4.0258321,5.2429897],[-4.0241209,5.2430325],[-4.023622,5.2430605],[-4.0231285,5.2430766],[-4.0228039,5.2430792],[-4.0216908,5.2430779],[-4.0208137,5.2430565],[-4.0194753,5.2430645],[-4.0180779,5.2430458],[-4.0163478,5.2430538],[-4.0154278,5.2430485],[-4.0146232,5.2430766],[-4.0136844,5.2430525],[-4.0126826,5.2430538],[-4.0115319,5.2430886],[-4.0108573,5.2430912],[-4.0098153,5.2430899],[-4.0088671,5.2430819],[-4.0080236,5.2430766],[-4.0075408,5.2431019],[-4.0071572,5.2431366],[-4.006999,5.2431647],[-4.0068018,5.2432261],[-4.0068139,5.2431213],[-4.0068129,5.2430829],[-4.0068022,5.2430402],[-4.0067841,5.2430168],[-4.0067552,5.2430081],[-4.0067224,5.2430068],[-4.0066778,5.2430265],[-4.0066443,5.2430993],[-4.0066212,5.2431949],[-4.0065979,5.2435125],[-4.006534,5.2438259],[-4.0065751,5.2443436],[-4.0065568,5.244598],[-4.0064877,5.2449179],[-4.006418,5.245143],[-4.0057132,5.2457254],[-4.0043453,5.2463008],[-4.0039117,5.2463504],[-4.0035959,5.2464147],[-4.0033311,5.2464086],[-4.0028482,5.2459225],[-4.0025425,5.2455752],[-4.0024218,5.2455459],[-4.0022662,5.2456126],[-4.002218,5.2457062],[-4.0022286,5.245821],[-4.0021958,5.2485523],[-4.0019563,5.2502074],[-4.0019068,5.2502121],[-4.0018371,5.2502388],[-4.0017727,5.2503216],[-4.0017472,5.2504035],[-4.0024513,5.251024],[-4.0024852,5.251071],[-4.002344,5.2513091],[-4.0020861,5.2516848],[-4.0016269,5.25209],[-4.0008717,5.2523888],[-3.9998846,5.2528916],[-3.9988211,5.2532505],[-3.9974811,5.2536361],[-3.9965194,5.2538044],[-3.9957527,5.2539426],[-3.9950871,5.2540788],[-3.9944276,5.2541152],[-3.9935952,5.2541454],[-3.9925359,5.2541669],[-3.9919176,5.2542407],[-3.9911118,5.2543699],[-3.9903635,5.2543886],[-3.9894061,5.2543457],[-3.9886301,5.2543107],[-3.9878936,5.2544204],[-3.9873228,5.2544932],[-3.9868038,5.2544622],[-3.986425,5.2544862],[-3.9860719,5.2545035],[-3.9855969,5.2543599],[-3.9849458,5.2542214],[-3.98457,5.2541821],[-3.9841897,5.2542059],[-3.9836556,5.2543048],[-3.9830393,5.2544881],[-3.9821637,5.2546861],[-3.9817841,5.2546599],[-3.9812621,5.2548339],[-3.9806721,5.2550169],[-3.9802092,5.2550599],[-3.979213,5.2551345],[-3.9779943,5.2553399],[-3.9776811,5.2553376],[-3.9771473,5.2552975],[-3.9762837,5.2551987],[-3.9752604,5.2550425],[-3.9747629,5.2549717],[-3.973521,5.2548087],[-3.9731361,5.2547433],[-3.9728732,5.2547193],[-3.9727056,5.2547099],[-3.9724951,5.2546832],[-3.9724025,5.2546632],[-3.9721933,5.2546084],[-3.9718433,5.2545376],[-3.9708991,5.254368],[-3.9698061,5.2541757],[-3.9685522,5.253926],[-3.9677569,5.253715],[-3.9674257,5.2536229],[-3.9665647,5.2533277],[-3.9661449,5.2531621],[-3.9655696,5.2529484],[-3.9649393,5.2526907],[-3.9646469,5.2525531],[-3.9643814,5.2524156],[-3.9643022,5.2523555],[-3.9641775,5.2522446],[-3.9641292,5.2522219],[-3.964034,5.2521912],[-3.9639106,5.2521525],[-3.9638007,5.2521191],[-3.9636546,5.2520678],[-3.9633662,5.2519775],[-3.963055,5.2518974],[-3.9629799,5.2518787],[-3.962642,5.2517692],[-3.9623147,5.2516637],[-3.9620546,5.2515689],[-3.9617783,5.2514661],[-3.9614256,5.2513071],[-3.961092,5.2511713],[-3.9606102,5.250988],[-3.9602253,5.2508384],[-3.9598444,5.2506407],[-3.9591712,5.2502762],[-3.9583397,5.2498515],[-3.957826,5.2496164],[-3.9576598,5.2495216],[-3.9574412,5.2493867],[-3.9573352,5.2493066],[-3.9572601,5.2492612],[-3.9571837,5.2492425],[-3.957063,5.2492158],[-3.956961,5.2491717],[-3.9568135,5.2490782],[-3.9564219,5.2488819],[-3.9560304,5.2486721],[-3.9556535,5.2484933],[-3.9552316,5.2483338],[-3.9550258,5.2482649],[-3.9547791,5.2481968],[-3.9545001,5.2481167],[-3.9541715,5.2479898],[-3.9535144,5.2477601],[-3.9531188,5.2476212],[-3.9526415,5.2474867],[-3.9520459,5.2473354],[-3.9514414,5.2472254],[-3.9508004,5.2470888],[-3.9497973,5.2468606],[-3.9494079,5.2467865],[-3.9490253,5.2467311],[-3.9485583,5.2466823],[-3.9467368,5.2464339],[-3.9447926,5.2460908],[-3.9439188,5.2459666],[-3.9411948,5.2455269],[-3.9401061,5.2453193],[-3.9363115,5.2445392],[-3.9351695,5.2443566],[-3.9345834,5.2442663],[-3.9336553,5.2440314],[-3.9332369,5.2439513],[-3.9326596,5.243862],[-3.9287355,5.2433133],[-3.9250907,5.2428124],[-3.9226934,5.2424601],[-3.9194809,5.2419715],[-3.9165989,5.2416023],[-3.9133399,5.2410245],[-3.9119325,5.2408543],[-3.9105511,5.2405947],[-3.9082617,5.2402482],[-3.9076674,5.2401425],[-3.9071658,5.240081],[-3.906498,5.2399795],[-3.9055109,5.23983],[-3.904725,5.2397018],[-3.9033308,5.2394707],[-3.9025363,5.2393412],[-3.9011711,5.2391115],[-3.8992092,5.2387939],[-3.8988617,5.2387081],[-3.8984862,5.2386066],[-3.8982502,5.2385586],[-3.8968179,5.2383422],[-3.8958362,5.2381633],[-3.8940045,5.2378489],[-3.8903752,5.2371722],[-3.8901258,5.2371162],[-3.8895464,5.2369479],[-3.8890556,5.2368251],[-3.8873497,5.2364698],[-3.8870466,5.2364164],[-3.8867784,5.236363],[-3.8863331,5.2362695],[-3.8849115,5.2359436],[-3.8830791,5.23548],[-3.8819306,5.2351988],[-3.8810411,5.2349874],[-3.8805074,5.2348619],[-3.879928,5.2347016],[-3.8791099,5.2345013],[-3.877396,5.2340766],[-3.8768542,5.2339617],[-3.8764411,5.2338709],[-3.8759288,5.2337427],[-3.8749096,5.2334462],[-3.8732734,5.2329628],[-3.8720879,5.2326369],[-3.8697141,5.2319237],[-3.8654307,5.2306069],[-3.8635129,5.2299552],[-3.8627431,5.2297095],[-3.8618419,5.229445],[-3.8614744,5.2292954],[-3.8610077,5.2291138],[-3.8603881,5.2289375],[-3.860305,5.2289055],[-3.860085,5.2287906],[-3.8598087,5.2286945],[-3.8595137,5.228617],[-3.8594279,5.2285983],[-3.8593152,5.2285609],[-3.8573062,5.2278451],[-3.855823,5.2273082],[-3.8548011,5.2269022],[-3.8535119,5.2303033],[-3.8467547,5.2472073],[-3.8451734,5.2511999],[-3.8440239,5.2541022],[-3.838653,5.2533627],[-3.819618,5.250742],[-3.817183,5.254138],[-3.8173465,5.255465],[-3.8179801,5.2615213],[-3.818006,5.2617688],[-3.8220799,5.2668519],[-3.8212731,5.2719412],[-3.8210999,5.2721798],[-3.8196448,5.274185],[-3.8086446,5.2893433],[-3.8546519,5.2939448],[-3.8627911,5.2973261],[-3.8733721,5.3023992],[-3.8831379,5.3057771],[-3.8943267,5.3073165],[-3.8953409,5.307456],[-3.8978169,5.3077847],[-3.9270801,5.3030931],[-3.9380191,5.2973569],[-3.9406729,5.2878825],[-3.9424235,5.2836569],[-3.9434668,5.2820437],[-3.9448117,5.2801765],[-3.9493464,5.2787302],[-3.959444,5.2778923],[-3.9645942,5.2735295],[-3.967263,5.2702214],[-3.972024,5.2666337],[-3.9778143,5.2661212],[-3.9872897,5.274971],[-3.9916527,5.2856161],[-3.9999955,5.2778383],[-4.0093783,5.2706144],[-4.0106514,5.2699243],[-4.0112887,5.2695789],[-4.0128847,5.2695067],[-4.0205774,5.271378],[-4.0255702,5.2689614],[-4.0324525,5.2656302],[-4.0342408,5.2426959]]]}}]}